STARLINK-35647          
1 66388U 25257J   26176.43463971  .00021290  00000+0  72877-3 0  9998
2 66388  53.1583  76.2820 0001095 113.2688 246.8428 15.30204283 36222
STARLINK-35694          
1 66389U 25257K   26176.76543648  .00022762  00000+0  77810-3 0  9992
2 66389  53.1585  74.7893 0001552 115.6790 244.4371 15.30208134 36282
STARLINK-35665          
1 66390U 25257L   26176.83335647 -.00004594  00000+0 -12504-3 0  9994
2 66390  53.1608  74.5048 0001281  94.9057 256.3753 15.34368837  5850
STARLINK-35656          
1 66391U 25257M   26176.72187375  .00039660  00000+0  13436-2 0  9990
2 66391  53.1575  78.0575 0002564  80.7402 279.3889 15.30209643 36337
STARLINK-35671          
1 66392U 25257N   26176.69274439  .00027703  00000+0  94383-3 0  9991
2 66392  53.1579  75.0484 0001071 116.4291 243.6820 15.30205433 36278
STARLINK-35652          
1 66393U 25257P   26176.83335647  .00001490  00000+0  55283-4 0  9999
2 66393  53.1597  74.9108 0001535  95.8160  57.6780 15.34373474  5864
STARLINK-35672          
1 66394U 25257Q   26176.04026844  .00074614  00000+0  21978-2 0  9999
2 66394  53.1590  76.6696 0001141 101.8779 258.2352 15.34397588 36192
STARLINK-35681          
1 66395U 25257R   26176.44831206  .00061650  00000+0  20669-2 0  9992
2 66395  53.1608  76.3627 0002563 168.3397 191.7663 15.30346800 36156
STARLINK-35669          
1 66396U 25257S   26176.86386407  .00037072  00000+0  11027-2 0  9996
2 66396  53.1578  72.5673 0001380  82.6313 277.4846 15.34405116 36328
STARLINK-35510          
1 66397U 25257T   26176.04064621  .00029736  00000+0  10110-2 0  9998
2 66397  53.1585  78.0855 0001173 103.9733 256.1399 15.30235055 36172
STARLINK-35642          
1 66398U 25257U   26176.71474703  .00055690  00000+0  16467-2 0  9998
2 66398  53.1574  73.7675 0002085 105.9333 254.1900 15.34409152 36298
STARLINK-35657          
1 66399U 25257V   26176.44788442  .00044983  00000+0  13335-2 0  9991
2 66399  53.1588  74.9455 0001268  97.9587 262.1560 15.34422890 36246
STARLINK-35667          
1 66400U 25257W   26176.69581869  .00028130  00000+0  84033-3 0  9995
2 66400  53.1587  73.6471 0000864  97.0033 263.1067 15.34409115 36293
STARLINK-35668          
1 66401U 25257X   26176.04234325  .00062466  00000+0  18424-2 0  9997
2 66401  53.1580  76.6775 0000993 101.0454 259.0660 15.34437340 36196
STARLINK-35602          
1 66403U 25257Z   26176.42684579  .00031775  00000+0  94689-3 0  9998
2 66403  53.1574  74.8134 0001371 101.7424 258.3732 15.34422973 36250
STARLINK-35691          
1 66404U 25257AA  26176.42264059  .00037697  00000+0  11203-2 0  9995
2 66404  53.1586  74.7871 0001315  73.6252 286.4895 15.34425723 36253
STARLINK-35683          
1 66405U 25257AB  26176.70632763  .00036184  00000+0  10771-2 0  9997
2 66405  53.1585  73.7105 0002305 113.1814 246.9431 15.34393706 36225
STARLINK-34840          
1 66406U 25257AC  26176.74202370  .00057400  00000+0  16955-2 0  9993
2 66406  53.1576  73.2166 0004196  80.7261 279.4216 15.34422430 36244
STARLINK-35686          
1 66407U 25257AD  26176.87017377  .00041679  00000+0  12372-2 0  9999
2 66407  53.1577  72.6001 0001107  74.7055 285.4070 15.34417291 36323
STARLINK-35679          
1 66408U 25257AE  26176.74411375  .00057501  00000+0  16987-2 0  9999
2 66408  53.1585  73.2315 0003519  85.1428 274.9976 15.34420237 36307
STARLINK-35617          
1 66422U 25259A   26176.60793102  .00020756  00000+0  76136-3 0  9998
2 66422  43.0018  25.0962 0000719 259.7388 100.3382 15.27592302 35990
STARLINK-35618          
1 66423U 25259B   26176.60278818  .00021158  00000+0  77548-3 0  9996
2 66423  42.9979  25.0565 0000171 168.8351 191.2504 15.27609367 35991
STARLINK-35588          
1 66424U 25259C   26176.60022007  .00014365  00000+0  53047-3 0  9994
2 66424  42.9997  25.0328 0001713 272.9500  87.1155 15.27582995 35997
STARLINK-35555          
1 66425U 25259D   26176.59636593  .00021902  00000+0  80281-3 0  9999
2 66425  42.9990  25.0035 0001068 277.6579  82.4151 15.27590950 35991
STARLINK-35589          
1 66426U 25259E   26175.93993112  .00025607  00000+0  93610-3 0  9996
2 66426  42.9960  28.6745 0000915 282.7410  77.3340 15.27605792 35890
STARLINK-35611          
1 66427U 25259F   26176.58994528  .00022043  00000+0  80805-3 0  9994
2 66427  42.9984  24.9519 0001063 286.0226  74.0508 15.27583536 35994
STARLINK-35610          
1 66428U 25259G   26176.58608535  .00026193  00000+0  95769-3 0  9990
2 66428  43.0016  24.9227 0001215 278.2650  81.8064 15.27589797 35990
STARLINK-35533          
1 66429U 25259H   26175.92836672  .00026952  00000+0  98496-3 0  9996
2 66429  43.0024  28.5846 0001266 268.2679  91.8028 15.27593845 35892
STARLINK-35470          
1 66430U 25259J   26175.98989831  .00016178  00000+0  59584-3 0  9994
2 66430  43.0018  28.1868 0001558 279.4074  80.6601 15.27595280 35904
STARLINK-35439          
1 66431U 25259K   26175.98732802  .00024279  00000+0  88856-3 0  9994
2 66431  43.0058  28.1652 0001500 276.2170  83.8511 15.27593199 35901
