OBJECT_NAME,OBJECT_ID,EPOCH,MEAN_MOTION,ECCENTRICITY,INCLINATION,RA_OF_ASC_NODE,ARG_OF_PERICENTER,MEAN_ANOMALY,EPHEMERIS_TYPE,CLASSIFICATION_TYPE,NORAD_CAT_ID,ELEMENT_SET_NO,REV_AT_EPOCH,BSTAR,MEAN_MOTION_DOT,MEAN_MOTION_DDOT
STARLINK-35647,2025-257J,2026-06-25T10:25:52.870944,15.30204283,.0001095,53.1583,76.2820,113.2688,246.8428,0,U,66388,999,3622,.72877E-3,.2129E-3,0
STARLINK-35694,2025-257K,2026-06-25T18:22:13.711872,15.30208134,.0001552,53.1585,74.7893,115.6790,244.4371,0,U,66389,999,3628,.7781E-3,.22762E-3,0
STARLINK-35665,2025-257L,2026-06-25T20:00:01.999008,15.34368837,.0001281,53.1608,74.5048,94.9057,256.3753,0,U,66390,999,585,-.12504E-3,-.4594E-4,0
STARLINK-35656,2025-257M,2026-06-25T17:19:29.892000,15.30209643,.0002564,53.1575,78.0575,80.7402,279.3889,0,U,66391,999,3633,.13436E-2,.3966E-3,0
STARLINK-35671,2025-257N,2026-06-25T16:37:33.115296,15.30205433,.0001071,53.1579,75.0484,116.4291,243.6820,0,U,66392,999,3627,.94383E-3,.27703E-3,0
STARLINK-35652,2025-257P,2026-06-25T20:00:01.999008,15.34373474,.0001535,53.1597,74.9108,95.8160,57.6780,0,U,66393,999,586,.55283E-4,.149E-4,0
STARLINK-35672,2025-257Q,2026-06-25T00:57:59.193216,15.34397588,.00011418,53.1590,76.6696,101.8779,258.2352,0,U,66394,999,3619,.21977707E-2,.74614E-3,0
STARLINK-35681,2025-257R,2026-06-25T10:45:34.161984,15.30346800,.0002563,53.1608,76.3627,168.3397,191.7663,0,U,66395,999,3615,.20669E-2,.6165E-3,0
STARLINK-35669,2025-257S,2026-06-25T20:43:57.855648,15.34405116,.000138,53.1578,72.5673,82.6313,277.4846,0,U,66396,999,3632,.11027E-2,.37072E-3,0
STARLINK-35510,2025-257T,2026-06-25T00:58:31.832544,15.30235055,.00011732,53.1585,78.0855,103.9733,256.1399,0,U,66397,999,3617,.10109829E-2,.29736E-3,0
STARLINK-35642,2025-257U,2026-06-25T17:09:14.143392,15.34409152,.0002085,53.1574,73.7675,105.9333,254.1900,0,U,66398,999,3629,.16467E-2,.5569E-3,0
STARLINK-35657,2025-257V,2026-06-25T10:44:57.213888,15.34422890,.0001268,53.1588,74.9455,97.9587,262.1560,0,U,66399,999,3624,.13335E-2,.44983E-3,0
STARLINK-35667,2025-257W,2026-06-25T16:41:58.734816,15.34409115,.0000864,53.1587,73.6471,97.0033,263.1067,0,U,66400,999,3629,.84033E-3,.2813E-3,0
STARLINK-35668,2025-257X,2026-06-25T01:00:58.456800,15.34437340,.0000993,53.1580,76.6775,101.0454,259.0660,0,U,66401,999,3619,.18423931E-2,.62466E-3,0
STARLINK-35602,2025-257Z,2026-06-25T10:14:39.476256,15.34422973,.0001371,53.1574,74.8134,101.7424,258.3732,0,U,66403,999,3625,.94689E-3,.31775E-3,0
STARLINK-35691,2025-257AA,2026-06-25T10:08:36.146976,15.34425723,.0001315,53.1586,74.7871,73.6252,286.4895,0,U,66404,999,3625,.11203E-2,.37697E-3,0
STARLINK-35683,2025-257AB,2026-06-25T16:57:06.707232,15.34393706,.0002305,53.1585,73.7105,113.1814,246.9431,0,U,66405,999,3622,.10771E-2,.36184E-3,0
STARLINK-34840,2025-257AC,2026-06-25T17:48:30.847680,15.34422430,.0004196,53.1576,73.2166,80.7261,279.4216,0,U,66406,999,3624,.16955E-2,.574E-3,0
STARLINK-35686,2025-257AD,2026-06-25T20:53:03.013728,15.34417291,.0001107,53.1577,72.6001,74.7055,285.4070,0,U,66407,999,3632,.12372E-2,.41679E-3,0
STARLINK-35679,2025-257AE,2026-06-25T17:51:31.428000,15.34420237,.0003519,53.1585,73.2315,85.1428,274.9976,0,U,66408,999,3630,.16987E-2,.57501E-3,0
STARLINK-35617,2025-259A,2026-06-25T14:35:25.240128,15.27592302,.0000719,43.0018,25.0962,259.7388,100.3382,0,U,66422,999,3599,.76136E-3,.20756E-3,0
STARLINK-35618,2025-259B,2026-06-25T14:28:00.898752,15.27609367,.0000171,42.9979,25.0565,168.8351,191.2504,0,U,66423,999,3599,.77548E-3,.21158E-3,0
STARLINK-35588,2025-259C,2026-06-25T14:24:19.014048,15.27582995,.0001713,42.9997,25.0328,272.9500,87.1155,0,U,66424,999,3599,.53047E-3,.14365E-3,0
STARLINK-35555,2025-259D,2026-06-25T14:18:46.016352,15.27590950,.0001068,42.9990,25.0035,277.6579,82.4151,0,U,66425,999,3599,.80281E-3,.21902E-3,0
STARLINK-35589,2025-259E,2026-06-24T22:33:30.048768,15.27605792,.00009154,42.9960,28.6745,282.7410,77.3340,0,U,66426,999,3589,.93610137E-3,.25607E-3,0
STARLINK-35611,2025-259F,2026-06-25T14:09:31.272192,15.27583536,.0001063,42.9984,24.9519,286.0226,74.0508,0,U,66427,999,3599,.80805E-3,.22043E-3,0
STARLINK-35610,2025-259G,2026-06-25T14:03:57.774240,15.27589797,.0001215,43.0016,24.9227,278.2650,81.8064,0,U,66428,999,3599,.95769E-3,.26193E-3,0
STARLINK-35533,2025-259H,2026-06-24T22:16:50.884608,15.27593845,.00012665,43.0024,28.5846,268.2679,91.8028,0,U,66429,999,3589,.98496235E-3,.26952E-3,0
STARLINK-35470,2025-259J,2026-06-24T23:45:27.213984,15.27595280,.00015581,43.0018,28.1868,279.4074,80.6601,0,U,66430,999,3590,.59584284E-3,.16178E-3,0
STARLINK-35439,2025-259K,2026-06-24T23:41:45.140928,15.27593199,.00015008,43.0058,28.1652,276.2170,83.8511,0,U,66431,999,3590,.88855781E-3,.24279E-3,0
